STARLINK-32379          
1 61851U 24202G   26068.45941736 -.00000713  00000+0 -16398-4 0  9995
2 61851  42.9987 227.9359 0000686 260.6359  99.4415 15.27570727 75423
FLOCK 4G-36             
1 62675U 25009BU  26068.70726311  .00013573  00000+0  51122-3 0  9993
2 62675  97.4053 151.0513 0003474 324.2456  35.8550 15.27209548 63701
